#aV2011  4 26  0  0   .00000000      96 DD+AD WGS84 FIT  NGA
## 1633 172800.00000000   900.00000000 55677  .0000000000000
+   32     1  2  3  4  5  6  7  8  9 10 11 12 13 14 15 16 17
+         18 19 20 21 22 23 24 25 26 27 28 29 30 31 32  0  0
+          0  0  0  0  0  0  0  0  0  0  0  0  0  0  0  0  0
+          0  0  0  0  0  0  0  0  0  0  0  0  0  0  0  0  0
+          0  0  0  0  0  0  0  0  0  0  0  0  0  0  0  0  0
++         0  0  0  0  0  0  0  0  0  0  0  0  0  0  0  0  0
++         0  0  0  0  0  0  0  0  0  0  0  0  0  0  0  0  0
++         0  0  0  0  0  0  0  0  0  0  0  0  0  0  0  0  0
++         0  0  0  0  0  0  0  0  0  0  0  0  0  0  0  0  0
++         0  0  0  0  0  0  0  0  0  0  0  0  0  0  0  0  0
%c cc cc ccc ccc cccc cccc cccc cccc ccccc ccccc ccccc ccccc
%c cc cc ccc ccc cccc cccc cccc cccc ccccc ccccc ccccc ccccc
%f  0.0000000  0.000000000  0.00000000000  0.000000000000000
%f  0.0000000  0.000000000  0.00000000000  0.000000000000000
%i    0    0    0    0      0      0      0      0         0
%i    0    0    0    0      0      0      0      0         0
/*      NGA, ST. LOUIS,MO.                                  
/*   EPHEMERIS COMPUTED FROM  3 DAYS OF DATA                
/* CCCCCCCCCCCCCCCCCCCCCCCCCCCCCCCCCCCCCCCCCCCCCCCCCCCCCCCCC
/* CCCCCCCCCCCCCCCCCCCCCCCCCCCCCCCCCCCCCCCCCCCCCCCCCCCCCCCCC
*  2011  4 26 20 15   .00000000                                                 
P  1   7278.742805 -23727.968719   9133.025250   -225.160139                    
V  1   1980.204729  11889.480122  29088.053178      -.024432                    
P  2   6209.306676  19022.556656  17738.732981    333.081080                    
V  2 -19917.464070 -10232.216074  17499.877243       .021423                    
P  3    375.237933 -18188.901514 -19666.486661    707.244337                    
V  3  20880.162257 -12547.981577  12585.163096       .050406                    
P  4  -8236.634435  13245.542686  21287.040207     99.170984                    
V  4 -23385.590599 -14679.304714    428.435679       .105041                    
P  5   1904.296973  26106.419514  -4176.555826   -150.687067                    
V  5  -3257.835264   5174.028196  31092.351543      -.057774                    
P  6   5972.803865 -18666.469101 -17664.218828    594.263404                    
V  6  20835.780784  -9787.307402  17451.503875     -1.028173                    
P  7 -22170.235148  -2601.485183 -14549.385140      9.246113                    
V  7 -14516.074583 -11374.243562  23946.311466       .010652                    
P  8 -16018.650774   4717.061013 -20772.488951      7.814862                    
V  8 -20635.861814 -16132.710818  11705.677664       .000438                    
P  9  21234.937414  15673.939877  -3544.291564     76.202789                    
V  9  -4301.750671   -250.837294 -31834.333092       .023120                    
P 10  -8938.771500  22411.430042  10453.841255    -72.523584                    
V 10  -2225.200521 -13911.271370  27727.882422      -.008825                    
P 11 -22275.868019 -13204.225459  -6973.474951   -145.907027                    
V 11   9442.400269  -1588.153717 -28110.780299      -.031875                    
P 12  11672.856886  15199.091926  18492.596922     -8.866551                    
V 12  -2546.837465  23216.594134 -17326.955627       .027493                    
P 13 -24650.196087   4044.030348   8961.137883    273.541705                    
V 13   9952.186570  -6084.659959  29585.808658      -.015403                    
P 14  20474.180717 -14964.007966   7807.309108    146.372185                    
V 14   9702.836810  -2121.424476 -30244.322223       .023592                    
P 15  13733.362247   9394.734148 -20728.110940   -132.350888                    
V 15 -22730.043829  13329.378002  -8853.499405       .027561                    
P 16     90.637378 -26241.019191  -2823.726200   -167.957809                    
V 16   2851.794036  -3436.991374  32018.257510      -.027077                    
P 17 -20307.692849  15412.893898   7161.825660    184.365531                    
V 17  -9300.937227   1374.391153 -30123.961804      -.000034                    
P 18  15146.795654  -8323.202518 -19760.744962    133.916584                    
V 18      8.936991  26027.375339 -11158.386983       .019649                    
P 19  -9767.629280 -12262.781488 -21475.144479   -134.483495                    
V 19  24998.478474 -10819.881716  -4848.689307      -.039258                    
P 20 -14290.244236 -10969.447361  19388.378704     49.052566                    
V 20   1641.629783 -25007.420834 -12778.641006       .001369                    
P 21  22000.789192   1136.568771 -14852.700039   -140.208022                    
V 21  14985.776182  12564.638065  21930.720777      -.026182                    
P 22  11356.483598 -19634.696851 -13565.622277    149.599309                    
V 22   1885.639502  17776.609415 -23959.805295      -.004097                    
P 23 -18715.802253  -4793.582780  18372.615871    310.597054                    
V 23  20113.122137 -11631.902663  17113.179053      -.026455                    
P 24 -22085.585137 -15009.437534    865.878570    384.933463                    
V 24    885.064178  -3002.699793 -31275.939972       .032495                    
P 25  15145.844229    203.646120  21800.936497      -.971393                    
V 25   -770.711289  27701.611870    298.472912       .003642                    
P 26    675.041370  15549.994783 -22054.635000    -13.609535                    
V 26 -24647.668707  10001.330676   6874.339779      -.106903                    
P 27  19130.845388  16766.877398  -7519.732211    259.276979                    
V 27  -9935.157091  -3469.293705 -30060.375653       .034969                    
P 28 -12386.573175  16406.767521 -16154.804095     33.935309                    
V 28   -105.444991 -21647.560565 -21480.840205       .025086                    
P 29  23502.349242  -1648.661314  12302.105479    202.931782                    
V 29 -13012.564754   8753.941658  26247.059596       .029874                    
P 30   3610.497629 -25700.113563   5162.096474    339.828220                    
V 30   2844.721106   7080.530408  30851.416538       .027340                    
P 31   5327.790461 -14157.918136  22015.202346     71.985754                    
V 31  23197.074789  14650.410188   4050.300106       .053086                    
P 32  -8954.924962 -19554.085143  16130.471673   -242.676014                    
V 32   4223.999622 -19432.812177 -21187.778913      -.072975                    
EOF
